ONEWEB-0196             
1 48218U 21031J   25190.53478527  .00000255  00000+0  65401-3 0  9998
2 48218  87.9043 357.8817 0001903  90.5742 269.5606 13.14503261203213
ONEWEB-0183             
1 48219U 21031K   25190.50938006 -.00000084  00000+0 -26001-3 0  9994
2 48219  87.9041 357.8991 0001650  93.9322 266.1997 13.14505638203301
ONEWEB-0185             
1 48220U 21031L   25190.53556842  .00000260  00000+0  66761-3 0  9994
2 48220  87.9039 357.8602 0001463  84.5713 275.5583 13.14503719203236
ONEWEB-0187             
1 48221U 21031M   25190.51561090  .00000039  00000+0  71897-4 0  9995
2 48221  87.9042 357.9098 0001696  82.9870 277.1452 13.14503450203241
ONEWEB-0192             
1 48222U 21031N   25190.48561996 -.00000124  00000+0 -36885-3 0  9991
2 48222  87.9043 357.9084 0001911  90.4246 269.7103 13.14502790203155
ONEWEB-0219             
1 48223U 21031P   25190.54112953  .00000185  00000+0  46320-3 0  9994
2 48223  87.9043 357.8702 0001752  87.2019 272.9311 13.14502667203360
ONEWEB-0202             
1 48224U 21031Q   25190.59821770  .00000239  00000+0  61147-3 0  9998
2 48224  87.9039 357.8733 0002392  77.6660 282.4738 13.14503547203352
ONEWEB-0204             
1 48225U 21031R   25190.48006711 -.00000042  00000+0 -14777-3 0  9998
2 48225  87.9025 357.8954 0001565  97.9384 262.1923 13.14502928203232
